{
  "type": "FeatureCollection",
  "features": [
    {
      "type": "Feature",
      "properties": {
        "norad_id": 28051,
        "name": "IRS-P6 (RESOURCESAT-1)",
        "group": "resource",
        "lat": 11.180134872622967,
        "lon": -140.32471395424255,
        "alt_km": 729.8588800150974,
        "timestamp": "2025-12-24T03:53:29.298823+00:00",
        "meta_object_name": "IRS-P6 (RESOURCESAT-1)",
        "meta_object_id": "2003-046A",
        "meta_epoch": "2025-12-23T21:13:20.742240",
        "meta_mean_motion": 14.36079161,
        "meta_eccentricity": 0.0064819,
        "meta_inclination": 98.216,
        "meta_ra_of_asc_node": 37.774,
        "meta_arg_of_pericenter": 147.3868,
        "meta_mean_anomaly": 25.1658,
        "meta_ephemeris_type": 0,
        "meta_classification_type": "U",
        "meta_norad_cat_id": 28051,
        "meta_element_set_no": 999,
        "meta_rev_at_epoch": 15536,
        "meta_bstar": 4.0239e-05,
        "meta_mean_motion_dot": 7.9e-07,
        "meta_mean_motion_ddot": 0,
        "tle_line1": "1 28051U 03046A   25357.88426785  .00000079  00000+0  40239-4 0  9996",
        "tle_line2": "2 28051  98.2160  37.7740 0064819 147.3868  25.1658 14.36079161155362"
      },
      "geometry": {
        "type": "Point",
        "coordinates": [
          -140.32471395424255,
          11.180134872622967
        ]
      }
    },
    {
      "type": "Feature",
      "properties": {
        "norad_id": 28220,
        "name": "SHIYAN-1 (SY-1)",
        "group": "resource",
        "lat": -47.42457344470267,
        "lon": -128.30774615807437,
        "alt_km": 485.0866251654252,
        "timestamp": "2025-12-24T03:53:29.298834+00:00",
        "meta_object_name": "SHIYAN-1 (SY-1)",
        "meta_object_id": "2004-012A",
        "meta_epoch": "2025-12-23T19:02:25.803744",
        "meta_mean_motion": 15.28418704,
        "meta_eccentricity": 0.0005139,
        "meta_inclination": 97.8916,
        "meta_ra_of_asc_node": 59.9851,
        "meta_arg_of_pericenter": 278.9303,
        "meta_mean_anomaly": 81.1353,
        "meta_ephemeris_type": 0,
        "meta_classification_type": "U",
        "meta_norad_cat_id": 28220,
        "meta_element_set_no": 999,
        "meta_rev_at_epoch": 18425,
        "meta_bstar": 0.00049914,
        "meta_mean_motion_dot": 0.00013744,
        "meta_mean_motion_ddot": 0,
        "tle_line1": "1 28220U 04012A   25357.79335421  .00013744  00000+0  49914-3 0  9995",
        "tle_line2": "2 28220  97.8916  59.9851 0005139 278.9303  81.1353 15.28418704184254"
      },
      "geometry": {
        "type": "Point",
        "coordinates": [
          -128.30774615807437,
          -47.42457344470267
        ]
      }
    },
    {
      "type": "Feature",
      "properties": {
        "norad_id": 28376,
        "name": "AURA",
        "group": "resource",
        "lat": 16.735275068851877,
        "lon": -54.07913516368476,
        "alt_km": 690.3277953193865,
        "timestamp": "2025-12-24T03:53:29.298845+00:00",
        "meta_object_name": "AURA",
        "meta_object_id": "2004-026A",
        "meta_epoch": "2025-12-23T19:35:44.469024",
        "meta_mean_motion": 14.60970653,
        "meta_eccentricity": 0.0001405,
        "meta_inclination": 98.3201,
        "meta_ra_of_asc_node": 308.0955,
        "meta_arg_of_pericenter": 91.6127,
        "meta_mean_anomaly": 268.5234,
        "meta_ephemeris_type": 0,
        "meta_classification_type": "U",
        "meta_norad_cat_id": 28376,
        "meta_element_set_no": 999,
        "meta_rev_at_epoch": 14060,
        "meta_bstar": 0.00021221,
        "meta_mean_motion_dot": 9.92e-06,
        "meta_mean_motion_ddot": 0,
        "tle_line1": "1 28376U 04026A   25357.81648691  .00000992  00000+0  21221-3 0  9993",
        "tle_line2": "2 28376  98.3201 308.0955 0001405  91.6127 268.5234 14.60970653140609"
      },
      "geometry": {
        "type": "Point",
        "coordinates": [
          -54.07913516368476,
          16.735275068851877
        ]
      }
    },
    {
      "type": "Feature",
      "properties": {
        "norad_id": 28649,
        "name": "IRS-P5 (CARTOSAT-1)",
        "group": "resource",
        "lat": -0.9669176103604538,
        "lon": 24.196634432078515,
        "alt_km": 599.4753570071261,
        "timestamp": "2025-12-24T03:53:29.298856+00:00",
        "meta_object_name": "IRS-P5 (CARTOSAT-1)",
        "meta_object_id": "2005-017A",
        "meta_epoch": "2025-12-23T02:06:56.284416",
        "meta_mean_motion": 14.90437763,
        "meta_eccentricity": 6.18e-05,
        "meta_inclination": 97.5483,
        "meta_ra_of_asc_node": 23.0421,
        "meta_arg_of_pericenter": 56.4975,
        "meta_mean_anomaly": 303.6302,
        "meta_ephemeris_type": 0,
        "meta_classification_type": "U",
        "meta_norad_cat_id": 28649,
        "meta_element_set_no": 999,
        "meta_rev_at_epoch": 11758,
        "meta_bstar": 0.00016366764,
        "meta_mean_motion_dot": 1.543e-05,
        "meta_mean_motion_ddot": 0,
        "tle_line1": "1 28649U 05017A   25357.08815144  .00001543  00000+0  16367-3 0  9993",
        "tle_line2": "2 28649  97.5483  23.0421 0000618  56.4975 303.6302 14.90437763117583"
      },
      "geometry": {
        "type": "Point",
        "coordinates": [
          24.196634432078515,
          -0.9669176103604538
        ]
      }
    },
    {
      "type": "Feature",
      "properties": {
        "norad_id": 28893,
        "name": "SINAH 1",
        "group": "resource",
        "lat": -13.234146705672758,
        "lon": 128.70826415174722,
        "alt_km": 689.9080685464414,
        "timestamp": "2025-12-24T03:53:29.298867+00:00",
        "meta_object_name": "SINAH 1",
        "meta_object_id": "2005-043D",
        "meta_epoch": "2025-12-23T19:45:02.657952",
        "meta_mean_motion": 14.63973493,
        "meta_eccentricity": 0.0015708,
        "meta_inclination": 98.2609,
        "meta_ra_of_asc_node": 126.4102,
        "meta_arg_of_pericenter": 104.672,
        "meta_mean_anomaly": 255.6224,
        "meta_ephemeris_type": 0,
        "meta_classification_type": "U",
        "meta_norad_cat_id": 28893,
        "meta_element_set_no": 999,
        "meta_rev_at_epoch": 7486,
        "meta_bstar": 8.6122e-05,
        "meta_mean_motion_dot": 4.03e-06,
        "meta_mean_motion_ddot": 0,
        "tle_line1": "1 28893U 05043D   25357.82294743  .00000403  00000+0  86122-4 0  9992",
        "tle_line2": "2 28893  98.2609 126.4102 0015708 104.6720 255.6224 14.63973493 74863"
      },
      "geometry": {
        "type": "Point",
        "coordinates": [
          128.70826415174722,
          -13.234146705672758
        ]
      }
    },
    {
      "type": "Feature",
      "properties": {
        "norad_id": 29079,
        "name": "EROS B",
        "group": "resource",
        "lat": 31.191134971562338,
        "lon": 110.83020947288992,
        "alt_km": 351.3765241514757,
        "timestamp": "2025-12-24T03:53:29.298878+00:00",
        "meta_object_name": "EROS B",
        "meta_object_id": "2006-014A",
        "meta_epoch": "2025-12-23T20:07:07.412736",
        "meta_mean_motion": 15.71814967,
        "meta_eccentricity": 0.0004131,
        "meta_inclination": 97.346,
        "meta_ra_of_asc_node": 114.9689,
        "meta_arg_of_pericenter": 311.3176,
        "meta_mean_anomaly": 48.7731,
        "meta_ephemeris_type": 0,
        "meta_classification_type": "U",
        "meta_norad_cat_id": 29079,
        "meta_element_set_no": 999,
        "meta_rev_at_epoch": 9254,
        "meta_bstar": 0.0014563,
        "meta_mean_motion_dot": 0.00192396,
        "meta_mean_motion_ddot": 0,
        "tle_line1": "1 29079U 06014A   25357.83828024  .00192396  00000+0  14563-2 0  9995",
        "tle_line2": "2 29079  97.3460 114.9689 0004131 311.3176  48.7731 15.71814967 92546"
      },
      "geometry": {
        "type": "Point",
        "coordinates": [
          110.83020947288992,
          31.191134971562338
        ]
      }
    },
    {
      "type": "Feature",
      "properties": {
        "norad_id": 29228,
        "name": "RESURS-DK 1",
        "group": "resource",
        "lat": 61.03735241373534,
        "lon": -149.0159638056256,
        "alt_km": 526.3570031316422,
        "timestamp": "2025-12-24T03:53:29.298889+00:00",
        "meta_object_name": "RESURS-DK 1",
        "meta_object_id": "2006-021A",
        "meta_epoch": "2025-12-23T14:42:01.772928",
        "meta_mean_motion": 15.122178,
        "meta_eccentricity": 0.0006872,
        "meta_inclination": 69.9337,
        "meta_ra_of_asc_node": 73.7385,
        "meta_arg_of_pericenter": 249.2294,
        "meta_mean_anomaly": 110.8136,
        "meta_ephemeris_type": 0,
        "meta_classification_type": "U",
        "meta_norad_cat_id": 29228,
        "meta_element_set_no": 999,
        "meta_rev_at_epoch": 7602,
        "meta_bstar": 0.00016371,
        "meta_mean_motion_dot": 2.729e-05,
        "meta_mean_motion_ddot": 0,
        "tle_line1": "1 29228U 06021A   25357.61252052  .00002729  00000+0  16371-3 0  9997",
        "tle_line2": "2 29228  69.9337  73.7385 0006872 249.2294 110.8136 15.12217800 76022"
      },
      "geometry": {
        "type": "Point",
        "coordinates": [
          -149.0159638056256,
          61.03735241373534
        ]
      }
    }
  ]
}